{"fetched_at":"2026-07-05T16:24:38.464Z","source":"https://celestrak.org/NORAD/elements/gp.php?NAME=RCM&FORMAT=JSON","constellation":"rcm","records":[{"OBJECT_NAME":"RCM-1","OBJECT_ID":"2019-033A","EPOCH":"2026-07-05T02:25:34.177728","CLASSIFICATION_TYPE":"U","MEAN_MOTION":14.92593314,"ECCENTRICITY":0.00014936,"INCLINATION":97.76,"RA_OF_ASC_NODE":193.2939,"ARG_OF_PERICENTER":89.7056,"MEAN_ANOMALY":270.4334,"EPHEMERIS_TYPE":0,"NORAD_CAT_ID":44322,"ELEMENT_SET_NO":999,"REV_AT_EPOCH":38475,"BSTAR":0.00012079069,"MEAN_MOTION_DOT":0.00001187,"MEAN_MOTION_DDOT":0},{"OBJECT_NAME":"RCM-3","OBJECT_ID":"2019-033B","EPOCH":"2026-07-04T10:52:45.982272","CLASSIFICATION_TYPE":"U","MEAN_MOTION":14.92586626,"ECCENTRICITY":0.00014747,"INCLINATION":97.7599,"RA_OF_ASC_NODE":192.7496,"ARG_OF_PERICENTER":89.8817,"MEAN_ANOMALY":270.2571,"EPHEMERIS_TYPE":0,"NORAD_CAT_ID":44323,"ELEMENT_SET_NO":999,"REV_AT_EPOCH":38467,"BSTAR":-0.000005384341,"MEAN_MOTION_DOT":-0.00000111,"MEAN_MOTION_DDOT":0},{"OBJECT_NAME":"RCM-2","OBJECT_ID":"2019-033C","EPOCH":"2026-07-04T03:22:03.414720","CLASSIFICATION_TYPE":"U","MEAN_MOTION":14.92590442,"ECCENTRICITY":0.00015368,"INCLINATION":97.7605,"RA_OF_ASC_NODE":192.391,"ARG_OF_PERICENTER":87.5528,"MEAN_ANOMALY":272.5867,"EPHEMERIS_TYPE":0,"NORAD_CAT_ID":44324,"ELEMENT_SET_NO":999,"REV_AT_EPOCH":38461,"BSTAR":-0.000019218251,"MEAN_MOTION_DOT":-0.00000253,"MEAN_MOTION_DDOT":0}]}
