RCM-1                   
1 44322U 19033A   26186.10109002  .00001187  00000+0  12079-3 0  9995
2 44322  97.7600 193.2939 0001493  89.7056 270.4334 14.92593314384755
RCM-3                   
1 44323U 19033B   26185.45330998 -.00000111  00000+0 -53843-5 0  9997
2 44323  97.7599 192.7496 0001474  89.8817 270.2571 14.92586626384670
RCM-2                   
1 44324U 19033C   26185.14031730 -.00000253  00000+0 -19218-4 0  9990
2 44324  97.7605 192.3910 0001536  87.5528 272.5867 14.92590442384617
